[
{
"CCSDS_OMM_VERS": "2.0",
"COMMENT": "GENERATED VIA SPACE-TRACK.ORG API",
"CREATION_DATE": "2025-03-20T19:29:49",
"ORIGINATOR": "18 SPCS",
"OBJECT_NAME": "BEIDOU 3M22",
"OBJECT_ID": "2019-078B",
"CENTER_NAME": "EARTH",
"REF_FRAME": "TEME",
"TIME_SYSTEM": "UTC",
"MEAN_ELEMENT_THEORY": "SGP4",
"EPOCH": "2025-03-19T22:52:38.920800",
"MEAN_MOTION": "1.86227748",
"ECCENTRICITY": "0.00052310",
"INCLINATION": "54.3140",
"RA_OF_ASC_NODE": "315.7301",
"ARG_OF_PERICENTER": "24.4171",
"MEAN_ANOMALY": "335.6566",
"EPHEMERIS_TYPE": "0",
"CLASSIFICATION_TYPE": "U",
"NORAD_CAT_ID": "44794",
"ELEMENT_SET_NO": "999",
"REV_AT_EPOCH": "3619",
"BSTAR": "0.00000000000000",
"MEAN_MOTION_DOT": "-0.00000055",
"MEAN_MOTION_DDOT": "0.0000000000000",
"SEMIMAJOR_AXIS": "27906.513",
"PERIOD": "773.247",
"APOAPSIS": "21542.976",
"PERIAPSIS": "21513.781",
"OBJECT_TYPE": "PAYLOAD",
"RCS_SIZE": "LARGE",
"COUNTRY_CODE": "PRC",
"LAUNCH_DATE": "2019-11-23",
"SITE": "XSC",
"DECAY_DATE": null,
"FILE": "4675094",
"GP_ID": "283583458",
"TLE_LINE0": "0 BEIDOU 3M22",
"TLE_LINE1": "1 44794U 19078B   25078.95322825 -.00000055  00000-0  00000-0 0  9992",
"TLE_LINE2": "2 44794  54.3140 315.7301 0005231  24.4171 335.6566  1.86227748 36195"
},
{
"CCSDS_OMM_VERS": "2.0",
"COMMENT": "GENERATED VIA SPACE-TRACK.ORG API",
"CREATION_DATE": "2025-03-20T03:31:02",
"ORIGINATOR": "18 SPCS",
"OBJECT_NAME": "BD-2-G7",
"OBJECT_ID": "2016-037A",
"CENTER_NAME": "EARTH",
"REF_FRAME": "TEME",
"TIME_SYSTEM": "UTC",
"MEAN_ELEMENT_THEORY": "SGP4",
"EPOCH": "2025-03-19T22:31:32.530944",
"MEAN_MOTION": "1.00265715",
"ECCENTRICITY": "0.00111830",
"INCLINATION": "1.5457",
"RA_OF_ASC_NODE": "67.6221",
"ARG_OF_PERICENTER": "335.9445",
"MEAN_ANOMALY": "222.4583",
"EPHEMERIS_TYPE": "0",
"CLASSIFICATION_TYPE": "U",
"NORAD_CAT_ID": "41586",
"ELEMENT_SET_NO": "999",
"REV_AT_EPOCH": "233",
"BSTAR": "0.00000000000000",
"MEAN_MOTION_DOT": "-0.00000345",
"MEAN_MOTION_DDOT": "0.0000000000000",
"SEMIMAJOR_AXIS": "42166.434",
"PERIOD": "1436.184",
"APOAPSIS": "35835.453",
"PERIAPSIS": "35741.144",
"OBJECT_TYPE": "PAYLOAD",
"RCS_SIZE": "LARGE",
"COUNTRY_CODE": "PRC",
"LAUNCH_DATE": "2016-06-12",
"SITE": "XSC",
"DECAY_DATE": null,
"FILE": "4674434",
"GP_ID": "283536088",
"TLE_LINE0": "0 BD-2-G7",
"TLE_LINE1": "1 41586U 16037A   25078.93857096 -.00000345  00000-0  00000-0 0  9993",
"TLE_LINE2": "2 41586   1.5457  67.6221 0011183 335.9445 222.4583  1.00265715  2330"
},
{
"CCSDS_OMM_VERS": "2.0",
"COMMENT": "GENERATED VIA SPACE-TRACK.ORG API",
"CREATION_DATE": "2025-03-20T19:29:49",
"ORIGINATOR": "18 SPCS",
"OBJECT_NAME": "BEIDOU 3M18",
"OBJECT_ID": "2018-093B",
"CENTER_NAME": "EARTH",
"REF_FRAME": "TEME",
"TIME_SYSTEM": "UTC",
"MEAN_ELEMENT_THEORY": "SGP4",
"EPOCH": "2025-03-19T21:47:21.841152",
"MEAN_MOTION": "1.86229900",
"ECCENTRICITY": "0.00060130",
"INCLINATION": "54.1906",
"RA_OF_ASC_NODE": "197.7003",
"ARG_OF_PERICENTER": "328.0539",
"MEAN_ANOMALY": "31.9001",
"EPHEMERIS_TYPE": "0",
"CLASSIFICATION_TYPE": "U",
"NORAD_CAT_ID": "43707",
"ELEMENT_SET_NO": "999",
"REV_AT_EPOCH": "4307",
"BSTAR": "0.00000000000000",
"MEAN_MOTION_DOT": "0.00000022",
"MEAN_MOTION_DDOT": "0.0000000000000",
"SEMIMAJOR_AXIS": "27906.298",
"PERIOD": "773.238",
"APOAPSIS": "21544.944",
"PERIAPSIS": "21511.383",
"OBJECT_TYPE": "PAYLOAD",
"RCS_SIZE": "LARGE",
"COUNTRY_CODE": "PRC",
"LAUNCH_DATE": "2018-11-18",
"SITE": "XSC",
"DECAY_DATE": null,
"FILE": "4675094",
"GP_ID": "283583206",
"TLE_LINE0": "0 BEIDOU 3M18",
"TLE_LINE1": "1 43707U 18093B   25078.90789168  .00000022  00000-0  00000-0 0  9996",
"TLE_LINE2": "2 43707  54.1906 197.7003 0006013 328.0539  31.9001  1.86229900 43070"
},
{
"CCSDS_OMM_VERS": "2.0",
"COMMENT": "GENERATED VIA SPACE-TRACK.ORG API",
"CREATION_DATE": "2025-03-20T03:31:02",
"ORIGINATOR": "18 SPCS",
"OBJECT_NAME": "BEIDOU 16",
"OBJECT_ID": "2012-059A",
"CENTER_NAME": "EARTH",
"REF_FRAME": "TEME",
"TIME_SYSTEM": "UTC",
"MEAN_ELEMENT_THEORY": "SGP4",
"EPOCH": "2025-03-19T21:30:36.628992",
"MEAN_MOTION": "1.00273650",
"ECCENTRICITY": "0.00104650",
"INCLINATION": "3.2634",
"RA_OF_ASC_NODE": "78.1580",
"ARG_OF_PERICENTER": "303.0680",
"MEAN_ANOMALY": "203.1272",
"EPHEMERIS_TYPE": "0",
"CLASSIFICATION_TYPE": "U",
"NORAD_CAT_ID": "38953",
"ELEMENT_SET_NO": "999",
"REV_AT_EPOCH": "4535",
"BSTAR": "0.00000000000000",
"MEAN_MOTION_DOT": "-0.00000168",
"MEAN_MOTION_DDOT": "0.0000000000000",
"SEMIMAJOR_AXIS": "42164.209",
"PERIOD": "1436.070",
"APOAPSIS": "35830.199",
"PERIAPSIS": "35741.949",
"OBJECT_TYPE": "PAYLOAD",
"RCS_SIZE": "LARGE",
"COUNTRY_CODE": "PRC",
"LAUNCH_DATE": "2012-10-25",
"SITE": "XSC",
"DECAY_DATE": null,
"FILE": "4674434",
"GP_ID": "283534735",
"TLE_LINE0": "0 BEIDOU 16",
"TLE_LINE1": "1 38953U 12059A   25078.89625728 -.00000168  00000-0  00000-0 0  9990",
"TLE_LINE2": "2 38953   3.2634  78.1580 0010465 303.0680 203.1272  1.00273650 45351"
},
{
"CCSDS_OMM_VERS": "2.0",
"COMMENT": "GENERATED VIA SPACE-TRACK.ORG API",
"CREATION_DATE": "2025-03-20T03:31:02",
"ORIGINATOR": "18 SPCS",
"OBJECT_NAME": "BEIDOU 3 G2",
"OBJECT_ID": "2020-017A",
"CENTER_NAME": "EARTH",
"REF_FRAME": "TEME",
"TIME_SYSTEM": "UTC",
"MEAN_ELEMENT_THEORY": "SGP4",
"EPOCH": "2025-03-19T21:25:32.960640",
"MEAN_MOTION": "1.00271610",
"ECCENTRICITY": "0.00030430",
"INCLINATION": "2.7202",
"RA_OF_ASC_NODE": "38.3747",
"ARG_OF_PERICENTER": "319.0591",
"MEAN_ANOMALY": "221.6621",
"EPHEMERIS_TYPE": "0",
"CLASSIFICATION_TYPE": "U",
"NORAD_CAT_ID": "45344",
"ELEMENT_SET_NO": "999",
"REV_AT_EPOCH": "1870",
"BSTAR": "0.00000000000000",
"MEAN_MOTION_DOT": "-0.00000133",
"MEAN_MOTION_DDOT": "0.0000000000000",
"SEMIMAJOR_AXIS": "42164.781",
"PERIOD": "1436.099",
"APOAPSIS": "35799.477",
"PERIAPSIS": "35773.815",
"OBJECT_TYPE": "PAYLOAD",
"RCS_SIZE": "LARGE",
"COUNTRY_CODE": "PRC",
"LAUNCH_DATE": "2020-03-09",
"SITE": "XSC",
"DECAY_DATE": null,
"FILE": "4674434",
"GP_ID": "283538138",
"TLE_LINE0": "0 BEIDOU 3 G2",
"TLE_LINE1": "1 45344U 20017A   25078.89274260 -.00000133  00000-0  00000-0 0  9998",
"TLE_LINE2": "2 45344   2.7202  38.3747 0003043 319.0591 221.6621  1.00271610 18709"
},
{
"CCSDS_OMM_VERS": "2.0",
"COMMENT": "GENERATED VIA SPACE-TRACK.ORG API",
"CREATION_DATE": "2025-03-20T03:31:02",
"ORIGINATOR": "18 SPCS",
"OBJECT_NAME": "BEIDOU 11",
"OBJECT_ID": "2012-008A",
"CENTER_NAME": "EARTH",
"REF_FRAME": "TEME",
"TIME_SYSTEM": "UTC",
"MEAN_ELEMENT_THEORY": "SGP4",
"EPOCH": "2025-03-19T20:59:51.313344",
"MEAN_MOTION": "1.00275181",
"ECCENTRICITY": "0.00128190",
"INCLINATION": "2.4398",
"RA_OF_ASC_NODE": "71.2351",
"ARG_OF_PERICENTER": "254.3736",
"MEAN_ANOMALY": "225.7416",
"EPHEMERIS_TYPE": "0",
"CLASSIFICATION_TYPE": "U",
"NORAD_CAT_ID": "38091",
"ELEMENT_SET_NO": "999",
"REV_AT_EPOCH": "4781",
"BSTAR": "0.00000000000000",
"MEAN_MOTION_DOT": "0.00000064",
"MEAN_MOTION_DDOT": "0.0000000000000",
"SEMIMAJOR_AXIS": "42163.780",
"PERIOD": "1436.048",
"APOAPSIS": "35839.695",
"PERIAPSIS": "35731.595",
"OBJECT_TYPE": "PAYLOAD",
"RCS_SIZE": "LARGE",
"COUNTRY_CODE": "PRC",
"LAUNCH_DATE": "2012-02-24",
"SITE": "XSC",
"DECAY_DATE": null,
"FILE": "4674434",
"GP_ID": "283533451",
"TLE_LINE0": "0 BEIDOU 11",
"TLE_LINE1": "1 38091U 12008A   25078.87489946  .00000064  00000-0  00000-0 0  9999",
"TLE_LINE2": "2 38091   2.4398  71.2351 0012819 254.3736 225.7416  1.00275181 47811"
},
{
"CCSDS_OMM_VERS": "2.0",
"COMMENT": "GENERATED VIA SPACE-TRACK.ORG API",
"CREATION_DATE": "2025-03-20T19:29:49",
"ORIGINATOR": "18 SPCS",
"OBJECT_NAME": "BEIDOU 3M9",
"OBJECT_ID": "2018-062A",
"CENTER_NAME": "EARTH",
"REF_FRAME": "TEME",
"TIME_SYSTEM": "UTC",
"MEAN_ELEMENT_THEORY": "SGP4",
"EPOCH": "2025-03-19T20:13:04.158336",
"MEAN_MOTION": "1.86228749",
"ECCENTRICITY": "0.00022640",
"INCLINATION": "54.1067",
"RA_OF_ASC_NODE": "197.7520",
"ARG_OF_PERICENTER": "292.8321",
"MEAN_ANOMALY": "67.1343",
"EPHEMERIS_TYPE": "0",
"CLASSIFICATION_TYPE": "U",
"NORAD_CAT_ID": "43581",
"ELEMENT_SET_NO": "999",
"REV_AT_EPOCH": "4517",
"BSTAR": "0.00000000000000",
"MEAN_MOTION_DOT": "0.00000023",
"MEAN_MOTION_DDOT": "0.0000000000000",
"SEMIMAJOR_AXIS": "27906.413",
"PERIOD": "773.243",
"APOAPSIS": "21534.596",
"PERIAPSIS": "21521.960",
"OBJECT_TYPE": "PAYLOAD",
"RCS_SIZE": "LARGE",
"COUNTRY_CODE": "PRC",
"LAUNCH_DATE": "2018-07-29",
"SITE": "XSC",
"DECAY_DATE": null,
"FILE": "4675094",
"GP_ID": "283583172",
"TLE_LINE0": "0 BEIDOU 3M9",
"TLE_LINE1": "1 43581U 18062A   25078.84240924  .00000023  00000-0  00000-0 0  9998",
"TLE_LINE2": "2 43581  54.1067 197.7520 0002264 292.8321  67.1343  1.86228749 45176"
},
{
"CCSDS_OMM_VERS": "2.0",
"COMMENT": "GENERATED VIA SPACE-TRACK.ORG API",
"CREATION_DATE": "2025-03-19T22:46:19",
"ORIGINATOR": "18 SPCS",
"OBJECT_NAME": "BEIDOU 8",
"OBJECT_ID": "2011-013A",
"CENTER_NAME": "EARTH",
"REF_FRAME": "TEME",
"TIME_SYSTEM": "UTC",
"MEAN_ELEMENT_THEORY": "SGP4",
"EPOCH": "2025-03-19T19:34:55.784352",
"MEAN_MOTION": "1.00289106",
"ECCENTRICITY": "0.00305430",
"INCLINATION": "61.7649",
"RA_OF_ASC_NODE": "44.4602",
"ARG_OF_PERICENTER": "183.7747",
"MEAN_ANOMALY": "350.5972",
"EPHEMERIS_TYPE": "0",
"CLASSIFICATION_TYPE": "U",
"NORAD_CAT_ID": "37384",
"ELEMENT_SET_NO": "999",
"REV_AT_EPOCH": "5109",
"BSTAR": "0.00000000000000",
"MEAN_MOTION_DOT": "-0.00000162",
"MEAN_MOTION_DDOT": "0.0000000000000",
"SEMIMAJOR_AXIS": "42159.877",
"PERIOD": "1435.849",
"APOAPSIS": "35910.511",
"PERIAPSIS": "35652.973",
"OBJECT_TYPE": "PAYLOAD",
"RCS_SIZE": "LARGE",
"COUNTRY_CODE": "PRC",
"LAUNCH_DATE": "2011-04-09",
"SITE": "XSC",
"DECAY_DATE": null,
"FILE": "4674323",
"GP_ID": "283518165",
"TLE_LINE0": "0 BEIDOU 8",
"TLE_LINE1": "1 37384U 11013A   25078.81592343 -.00000162  00000-0  00000+0 0  9997",
"TLE_LINE2": "2 37384  61.7649  44.4602 0030543 183.7747 350.5972  1.00289106 51095"
}
]
